start=new Date('2022-08-23T00:00:00.000Z').valueOf();
sats=[{"OBJECT_NAME":"STARLINK-4333","PERIOD":"95.193","ECCENTRICITY":"0.00020700","RCS_SIZE":"LARGE","COUNTRY_CODE":"US","REV_AT_EPOCH":"130","EPOCH":"2022-08-22T22:00:00.999936","INCLINATION":"97.6555","FILE":"3544179","CENTER_NAME":"EARTH","PERIAPSIS":"526.506","MEAN_MOTION":"15.12711907","OBJECT_TYPE":"PAYLOAD","GP_ID":"210780415","RA_OF_ASC_NODE":"55.2191","MEAN_MOTION_DDOT":"0.0000000000000","MEAN_MOTION_DOT":"-0.01217844","APOAPSIS":"529.365","ELEMENT_SET_NO":"999","MEAN_ELEMENT_THEORY":"SGP4","CLASSIFICATION_TYPE":"U","TLE_LINE2":"2 53088  97.6555  55.2191 0002070  68.7340 152.1772 15.12711907  1306","SITE":"AFWTR","NORAD_CAT_ID":"53088","LAUNCH_DATE":"2022-07-11","SEMIMAJOR_AXIS":"6906.071","TLE_LINE1":"1 53088U 22077AX  22234.91667824 -.01217844  00000-0 -75925-1 0  9996","ARG_OF_PERICENTER":"68.7340","EPHEMERIS_TYPE":"0","REF_FRAME":"TEME","OBJECT_ID":"2022-077AX","TIME_SYSTEM":"UTC","MEAN_ANOMALY":"152.1772","DECAY_DATE":null,"BSTAR":"-0.07592500000000"},{"RA_OF_ASC_NODE":"228.5254","MEAN_MOTION_DDOT":"0.0000000000000","MEAN_MOTION_DOT":"-0.01126392","ELEMENT_SET_NO":"999","APOAPSIS":"433.072","PERIAPSIS":"431.107","CENTER_NAME":"EARTH","FILE":"3544179","OBJECT_TYPE":"PAYLOAD","GP_ID":"210779987","MEAN_MOTION":"15.44758579","COUNTRY_CODE":"US","REV_AT_EPOCH":"130","INCLINATION":"53.2172","EPOCH":"2022-08-22T22:00:00.999936","OBJECT_NAME":"STARLINK-4063","ECCENTRICITY":"0.00014420","RCS_SIZE":"LARGE","PERIOD":"93.218","REF_FRAME":"TEME","OBJECT_ID":"2022-083A","EPHEMERIS_TYPE":"0","BSTAR":"-0.02589700000000","DECAY_DATE":null,"MEAN_ANOMALY":"312.9302","TIME_SYSTEM":"UTC","NORAD_CAT_ID":"53132","SITE":"AFETR","ARG_OF_PERICENTER":"41.3859","SEMIMAJOR_AXIS":"6810.225","LAUNCH_DATE":"2022-07-17","TLE_LINE1":"1 53132U 22083A   22234.91667824 -.01126392  00000-0 -25897-1 0  9993","CLASSIFICATION_TYPE":"U","TLE_LINE2":"2 53132  53.2172 228.5254 0001442  41.3859 312.9302 15.44758579  1304","MEAN_ELEMENT_THEORY":"SGP4"},{"RCS_SIZE":"LARGE","ECCENTRICITY":"0.00013140","PERIOD":"93.312","OBJECT_NAME":"STARLINK-4154","INCLINATION":"53.2171","EPOCH":"2022-08-22T22:00:00.999936","REV_AT_EPOCH":"130","COUNTRY_CODE":"US","GP_ID":"210780270","OBJECT_TYPE":"PAYLOAD","MEAN_MOTION":"15.43203992","CENTER_NAME":"EARTH","PERIAPSIS":"435.767","FILE":"3544179","APOAPSIS":"437.558","ELEMENT_SET_NO":"999","MEAN_MOTION_DOT":"-0.01125484","MEAN_MOTION_DDOT":"0.0000000000000","RA_OF_ASC_NODE":"228.4651","MEAN_ELEMENT_THEORY":"SGP4","TLE_LINE2":"2 53133  53.2171 228.4651 0001314  50.5896 285.4014 15.43203992  1302","CLASSIFICATION_TYPE":"U","ARG_OF_PERICENTER":"50.5896","TLE_LINE1":"1 53133U 22083B   22234.91667824 -.01125484  00000-0 -27285-1 0  9998","LAUNCH_DATE":"2022-07-17","SEMIMAJOR_AXIS":"6814.797","SITE":"AFETR","NORAD_CAT_ID":"53133","DECAY_DATE":null,"MEAN_ANOMALY":"285.4014","BSTAR":"-0.02728500000000","TIME_SYSTEM":"UTC","OBJECT_ID":"2022-083B","REF_FRAME":"TEME","EPHEMERIS_TYPE":"0"},{"MEAN_ELEMENT_THEORY":"SGP4","TLE_LINE2":"2 53134  53.2172 228.5019 0001463  40.7572 306.4659 15.44140484  1306","CLASSIFICATION_TYPE":"U","NORAD_CAT_ID":"53134","SITE":"AFETR","ARG_OF_PERICENTER":"40.7572","TLE_LINE1":"1 53134U 22083C   22234.91667824 -.01126087  00000-0 -26443-1 0  9994","SEMIMAJOR_AXIS":"6812.042","LAUNCH_DATE":"2022-07-17","OBJECT_ID":"2022-083C","REF_FRAME":"TEME","EPHEMERIS_TYPE":"0","BSTAR":"-0.02644300000000","DECAY_DATE":null,"MEAN_ANOMALY":"306.4659","TIME_SYSTEM":"UTC","OBJECT_NAME":"STARLINK-4150","RCS_SIZE":"LARGE","ECCENTRICITY":"0.00014630","PERIOD":"93.256","REV_AT_EPOCH":"130","COUNTRY_CODE":"US","INCLINATION":"53.2172","EPOCH":"2022-08-22T22:00:00.999936","PERIAPSIS":"432.910","CENTER_NAME":"EARTH","FILE":"3544179","GP_ID":"210779846","OBJECT_TYPE":"PAYLOAD","MEAN_MOTION":"15.44140484","RA_OF_ASC_NODE":"228.5019","MEAN_MOTION_DDOT":"0.0000000000000","ELEMENT_SET_NO":"999","APOAPSIS":"434.903","MEAN_MOTION_DOT":"-0.01126087"},{"DECAY_DATE":null,"MEAN_ANOMALY":"293.5320","BSTAR":"-0.02700200000000","TIME_SYSTEM":"UTC","REF_FRAME":"TEME","OBJECT_ID":"2022-083D","EPHEMERIS_TYPE":"0","ARG_OF_PERICENTER":"46.3486","SEMIMAJOR_AXIS":"6813.879","LAUNCH_DATE":"2022-07-17","TLE_LINE1":"1 53135U 22083D   22234.91667824 -.01125686  00000-0 -27002-1 0  9991","SITE":"AFETR","NORAD_CAT_ID":"53135","CLASSIFICATION_TYPE":"U","TLE_LINE2":"2 53135  53.2171 228.4776 0001370  46.3486 293.5320 15.43516164  1300","MEAN_ELEMENT_THEORY":"SGP4","MEAN_MOTION_DOT":"-0.01125686","ELEMENT_SET_NO":"999","APOAPSIS":"436.677","RA_OF_ASC_NODE":"228.4776","MEAN_MOTION_DDOT":"0.0000000000000","OBJECT_TYPE":"PAYLOAD","GP_ID":"210780128","MEAN_MOTION":"15.43516164","CENTER_NAME":"EARTH","PERIAPSIS":"434.810","FILE":"3544179","INCLINATION":"53.2171","EPOCH":"2022-08-22T22:00:00.999936","COUNTRY_CODE":"US","REV_AT_EPOCH":"130","ECCENTRICITY":"0.00013700","RCS_SIZE":"LARGE","PERIOD":"93.293","OBJECT_NAME":"STARLINK-4023"},{"TIME_SYSTEM":"UTC","DECAY_DATE":null,"BSTAR":"-0.02672500000000","MEAN_ANOMALY":"312.2586","EPHEMERIS_TYPE":"0","OBJECT_ID":"2022-083E","REF_FRAME":"TEME","TLE_LINE1":"1 53136U 22083E   22234.91667824 -.01126108  00000-0 -26725-1 0  9993","SEMIMAJOR_AXIS":"6812.960","LAUNCH_DATE":"2022-07-17","ARG_OF_PERICENTER":"31.3660","SITE":"AFETR","NORAD_CAT_ID":"53136","CLASSIFICATION_TYPE":"U","TLE_LINE2":"2 53136  53.2171 228.4897 0001714  31.3660 312.2586 15.43828402  1309","MEAN_ELEMENT_THEORY":"SGP4","APOAPSIS":"435.992","ELEMENT_SET_NO":"999","MEAN_MOTION_DOT":"-0.01126108","RA_OF_ASC_NODE":"228.4897","MEAN_MOTION_DDOT":"0.0000000000000","MEAN_MOTION":"15.43828402","GP_ID":"210779573","OBJECT_TYPE":"PAYLOAD","FILE":"3544179","PERIAPSIS":"433.657","CENTER_NAME":"EARTH","EPOCH":"2022-08-22T22:00:00.999936","INCLINATION":"53.2171","REV_AT_EPOCH":"130","COUNTRY_CODE":"US","PERIOD":"93.275","RCS_SIZE":"LARGE","ECCENTRICITY":"0.00017140","OBJECT_NAME":"STARLINK-4152"},{"CLASSIFICATION_TYPE":"U","TLE_LINE2":"2 53137  53.2172 228.5145 0001279  51.6004 299.0757 15.44452540  1300","MEAN_ELEMENT_THEORY":"SGP4","EPHEMERIS_TYPE":"0","OBJECT_ID":"2022-083F","REF_FRAME":"TEME","TIME_SYSTEM":"UTC","DECAY_DATE":null,"MEAN_ANOMALY":"299.0757","BSTAR":"-0.02616200000000","SITE":"AFETR","NORAD_CAT_ID":"53137","TLE_LINE1":"1 53137U 22083F   22234.91667824 -.01126031  00000-0 -26162-1 0  9994","SEMIMAJOR_AXIS":"6811.124","LAUNCH_DATE":"2022-07-17","ARG_OF_PERICENTER":"51.6004","REV_AT_EPOCH":"130","COUNTRY_CODE":"US","EPOCH":"2022-08-22T22:00:00.999936","INCLINATION":"53.2172","OBJECT_NAME":"STARLINK-4145","PERIOD":"93.237","RCS_SIZE":"LARGE","ECCENTRICITY":"0.00012790","RA_OF_ASC_NODE":"228.5145","MEAN_MOTION_DDOT":"0.0000000000000","ELEMENT_SET_NO":"999","APOAPSIS":"433.860","MEAN_MOTION_DOT":"-0.01126031","FILE":"3544179","CENTER_NAME":"EARTH","PERIAPSIS":"432.118","MEAN_MOTION":"15.44452540","GP_ID":"210780420","OBJECT_TYPE":"PAYLOAD"},{"APOAPSIS":"370.432","ELEMENT_SET_NO":"999","MEAN_MOTION_DOT":"-0.01050077","MEAN_MOTION_DDOT":"0.0000000000000","RA_OF_ASC_NODE":"226.6581","MEAN_MOTION":"15.66271628","GP_ID":"210779431","OBJECT_TYPE":"PAYLOAD","FILE":"3544179","CENTER_NAME":"EARTH","PERIAPSIS":"368.740","EPOCH":"2022-08-22T22:00:00.999936","INCLINATION":"53.2172","REV_AT_EPOCH":"130","COUNTRY_CODE":"US","PERIOD":"91.938","RCS_SIZE":"LARGE","ECCENTRICITY":"0.00012540","OBJECT_NAME":"STARLINK-4141","TIME_SYSTEM":"UTC","BSTAR":"-0.01111000000000","DECAY_DATE":null,"MEAN_ANOMALY":"167.8182","EPHEMERIS_TYPE":"0","OBJECT_ID":"2022-083G","REF_FRAME":"TEME","TLE_LINE1":"1 53138U 22083G   22234.91667824 -.01050077  00000-0 -11110-1 0  9998","LAUNCH_DATE":"2022-07-17","SEMIMAJOR_AXIS":"6747.721","ARG_OF_PERICENTER":"65.4932","NORAD_CAT_ID":"53138","SITE":"AFETR","TLE_LINE2":"2 53138  53.2172 226.6581 0001254  65.4932 167.8182 15.66271628  1304","CLASSIFICATION_TYPE":"U","MEAN_ELEMENT_THEORY":"SGP4"},{"RCS_SIZE":"LARGE","ECCENTRICITY":"0.00011810","PERIOD":"93.181","OBJECT_NAME":"STARLINK-4185","INCLINATION":"53.2173","EPOCH":"2022-08-22T22:00:00.999936","REV_AT_EPOCH":"634","COUNTRY_CODE":"US","GP_ID":"210753069","OBJECT_TYPE":"PAYLOAD","MEAN_MOTION":"15.45382746","PERIAPSIS":"429.452","CENTER_NAME":"EARTH","FILE":"3544085","ELEMENT_SET_NO":"999","APOAPSIS":"431.060","MEAN_MOTION_DOT":"-0.01126407","RA_OF_ASC_NODE":"228.5499","MEAN_MOTION_DDOT":"0.0000000000000","MEAN_ELEMENT_THEORY":"SGP4","CLASSIFICATION_TYPE":"U","TLE_LINE2":"2 53139  53.2173 228.5499 0001181  59.9589 300.5410 15.45382746  6340","ARG_OF_PERICENTER":"59.9589","TLE_LINE1":"1 53139U 22083H   22234.91667824 -.01126407  00000-0 -25349-1 0  9999","SEMIMAJOR_AXIS":"6808.391","LAUNCH_DATE":"2022-07-17","NORAD_CAT_ID":"53139","SITE":"AFETR","DECAY_DATE":null,"MEAN_ANOMALY":"300.5410","BSTAR":"-0.02534900000000","TIME_SYSTEM":"UTC","OBJECT_ID":"2022-083H","REF_FRAME":"TEME","EPHEMERIS_TYPE":"0"},{"CLASSIFICATION_TYPE":"U","TLE_LINE2":"2 53140  53.2172 228.5377 0001451  40.7663 316.7144 15.45070728  1305","MEAN_ELEMENT_THEORY":"SGP4","OBJECT_ID":"2022-083J","REF_FRAME":"TEME","EPHEMERIS_TYPE":"0","MEAN_ANOMALY":"316.7144","DECAY_DATE":null,"BSTAR":"-0.02562500000000","TIME_SYSTEM":"UTC","SITE":"AFETR","NORAD_CAT_ID":"53140","ARG_OF_PERICENTER":"40.7663","TLE_LINE1":"1 53140U 22083J   22234.91667824 -.01126564  00000-0 -25625-1 0  9992","SEMIMAJOR_AXIS":"6809.307","LAUNCH_DATE":"2022-07-17","REV_AT_EPOCH":"130","COUNTRY_CODE":"US","INCLINATION":"53.2172","EPOCH":"2022-08-22T22:00:00.999936","OBJECT_NAME":"STARLINK-4170","RCS_SIZE":"LARGE","ECCENTRICITY":"0.00014510","PERIOD":"93.200","MEAN_MOTION_DDOT":"0.0000000000000","RA_OF_ASC_NODE":"228.5377","ELEMENT_SET_NO":"999","APOAPSIS":"432.160","MEAN_MOTION_DOT":"-0.01126564","CENTER_NAME":"EARTH","PERIAPSIS":"430.184","FILE":"3544179","GP_ID":"210779988","OBJECT_TYPE":"PAYLOAD","MEAN_MOTION":"15.45070728"}];
